{
 "generated_at": "2026-07-23T07:33:13Z",
 "sources": [
  {
   "name": "CelesTrak",
   "url": "https://celestrak.org/NORAD/elements/",
   "license": "frei verfügbar; Attribution. Ursprünglich USSPACECOM/Space-Track."
  },
  {
   "name": "GCAT (J. McDowell, planet4589.org)",
   "url": "https://planet4589.org/space/gcat/",
   "license": "CC-BY 4.0"
  }
 ],
 "satellites": [
  {
   "norad": 60542,
   "name": "QPS-SAR-8 (AMATERU-IV)",
   "intl": "2024-149CC",
   "group": "sar",
   "gcat": {
    "class": "B",
    "category": "IMG-R",
    "owner": "QPS",
    "state": "J"
   },
   "omm": {
    "OBJECT_NAME": "QPS-SAR-8 (AMATERU-IV)",
    "OBJECT_ID": "2024-149CC",
    "EPOCH": "2026-07-22T04:22:05.368512",
    "MEAN_MOTION": 15.04433924,
    "ECCENTRICITY": 0.00028579,
    "INCLINATION": 97.6638,
    "RA_OF_ASC_NODE": 282.0428,
    "ARG_OF_PERICENTER": 17.5872,
    "MEAN_ANOMALY": 342.5453,
    "EPHEMERIS_TYPE": 0,
    "CLASSIFICATION_TYPE": "U",
    "NORAD_CAT_ID": 60542,
    "ELEMENT_SET_NO": 999,
    "REV_AT_EPOCH": 10553,
    "BSTAR": 0.00034257082,
    "MEAN_MOTION_DOT": 0.00004727,
    "MEAN_MOTION_DDOT": 0
   }
  },
  {
   "norad": 63205,
   "name": "QPS-SAR-9 (SUSANOO-I)",
   "intl": "2025-050A",
   "group": "sar",
   "gcat": {
    "class": "B",
    "category": "IMG-R",
    "owner": "QPS",
    "state": "J"
   },
   "omm": {
    "OBJECT_NAME": "QPS-SAR-9 (SUSANOO-I)",
    "OBJECT_ID": "2025-050A",
    "EPOCH": "2026-07-22T20:42:56.888352",
    "MEAN_MOTION": 15.03441479,
    "ECCENTRICITY": 0.00042,
    "INCLINATION": 42.0188,
    "RA_OF_ASC_NODE": 265.0505,
    "ARG_OF_PERICENTER": 9.8329,
    "MEAN_ANOMALY": 350.2579,
    "EPHEMERIS_TYPE": 0,
    "CLASSIFICATION_TYPE": "U",
    "NORAD_CAT_ID": 63205,
    "ELEMENT_SET_NO": 999,
    "REV_AT_EPOCH": 7433,
    "BSTAR": 0.00034464241,
    "MEAN_MOTION_DOT": 0.00004585,
    "MEAN_MOTION_DDOT": 0
   }
  },
  {
   "norad": 32382,
   "name": "RADARSAT-2",
   "intl": "2007-061A",
   "group": "resource",
   "gcat": {
    "class": "C",
    "category": "IMG-R",
    "owner": "CSA",
    "state": "CA"
   },
   "omm": {
    "OBJECT_NAME": "RADARSAT-2",
    "OBJECT_ID": "2007-061A",
    "EPOCH": "2026-07-23T00:04:04.905984",
    "MEAN_MOTION": 14.29980151,
    "ECCENTRICITY": 0.00013053,
    "INCLINATION": 98.5795,
    "RA_OF_ASC_NODE": 210.4244,
    "ARG_OF_PERICENTER": 87.7182,
    "MEAN_ANOMALY": 272.415,
    "EPHEMERIS_TYPE": 0,
    "CLASSIFICATION_TYPE": "U",
    "NORAD_CAT_ID": 32382,
    "ELEMENT_SET_NO": 999,
    "REV_AT_EPOCH": 97107,
    "BSTAR": -0.000037342504,
    "MEAN_MOTION_DOT": -0.0000014,
    "MEAN_MOTION_DDOT": 0
   }
  },
  {
   "norad": 37791,
   "name": "RASAT",
   "intl": "2011-044D",
   "group": "resource",
   "gcat": {
    "class": null,
    "category": null,
    "owner": null,
    "state": null
   },
   "omm": {
    "OBJECT_NAME": "RASAT",
    "OBJECT_ID": "2011-044D",
    "EPOCH": "2026-07-22T23:13:21.708768",
    "MEAN_MOTION": 14.68196706,
    "ECCENTRICITY": 0.00219728,
    "INCLINATION": 98.0575,
    "RA_OF_ASC_NODE": 294.8191,
    "ARG_OF_PERICENTER": 79.7385,
    "MEAN_ANOMALY": 35.7027,
    "EPHEMERIS_TYPE": 0,
    "CLASSIFICATION_TYPE": "U",
    "NORAD_CAT_ID": 37791,
    "ELEMENT_SET_NO": 999,
    "REV_AT_EPOCH": 79843,
    "BSTAR": 0.000024169863,
    "MEAN_MOTION_DOT": 9.1e-7,
    "MEAN_MOTION_DDOT": 0
   }
  },
  {
   "norad": 44322,
   "name": "RCM-1",
   "intl": "2019-033A",
   "group": "sar",
   "gcat": {
    "class": "C",
    "category": "IMG-R",
    "owner": "CSA",
    "state": "CA"
   },
   "omm": {
    "OBJECT_NAME": "RCM-1",
    "OBJECT_ID": "2019-033A",
    "EPOCH": "2026-07-23T00:07:43.307904",
    "MEAN_MOTION": 14.92591353,
    "ECCENTRICITY": 0.00015317,
    "INCLINATION": 97.76,
    "RA_OF_ASC_NODE": 210.9467,
    "ARG_OF_PERICENTER": 92.4947,
    "MEAN_ANOMALY": 293.5321,
    "EPHEMERIS_TYPE": 0,
    "CLASSIFICATION_TYPE": "U",
    "NORAD_CAT_ID": 44322,
    "ELEMENT_SET_NO": 999,
    "REV_AT_EPOCH": 38742,
    "BSTAR": 0.000051128296,
    "MEAN_MOTION_DOT": 0.0000047,
    "MEAN_MOTION_DDOT": 0
   }
  },
  {
   "norad": 44324,
   "name": "RCM-2",
   "intl": "2019-033C",
   "group": "sar",
   "gcat": {
    "class": "C",
    "category": "IMG-R",
    "owner": "CSA",
    "state": "CA"
   },
   "omm": {
    "OBJECT_NAME": "RCM-2",
    "OBJECT_ID": "2019-033C",
    "EPOCH": "2026-07-22T23:28:47.027712",
    "MEAN_MOTION": 14.92592528,
    "ECCENTRICITY": 0.00014994,
    "INCLINATION": 97.7599,
    "RA_OF_ASC_NODE": 210.9647,
    "ARG_OF_PERICENTER": 91.5436,
    "MEAN_ANOMALY": 268.5955,
    "EPHEMERIS_TYPE": 0,
    "CLASSIFICATION_TYPE": "U",
    "NORAD_CAT_ID": 44324,
    "ELEMENT_SET_NO": 999,
    "REV_AT_EPOCH": 38742,
    "BSTAR": 0.000079341574,
    "MEAN_MOTION_DOT": 0.0000076,
    "MEAN_MOTION_DDOT": 0
   }
  },
  {
   "norad": 44323,
   "name": "RCM-3",
   "intl": "2019-033B",
   "group": "sar",
   "gcat": {
    "class": "C",
    "category": "IMG-R",
    "owner": "CSA",
    "state": "CA"
   },
   "omm": {
    "OBJECT_NAME": "RCM-3",
    "OBJECT_ID": "2019-033B",
    "EPOCH": "2026-07-22T22:56:48.357600",
    "MEAN_MOTION": 14.92587013,
    "ECCENTRICITY": 0.00015111,
    "INCLINATION": 97.76,
    "RA_OF_ASC_NODE": 210.9926,
    "ARG_OF_PERICENTER": 92.7703,
    "MEAN_ANOMALY": 267.3689,
    "EPHEMERIS_TYPE": 0,
    "CLASSIFICATION_TYPE": "U",
    "NORAD_CAT_ID": 44323,
    "ELEMENT_SET_NO": 999,
    "REV_AT_EPOCH": 38743,
    "BSTAR": 0.000011957785,
    "MEAN_MOTION_DOT": 6.7e-7,
    "MEAN_MOTION_DDOT": 0
   }
  },
  {
   "norad": 37387,
   "name": "RESOURCESAT-2",
   "intl": "2011-015A",
   "group": "resource",
   "gcat": {
    "class": null,
    "category": "IMG",
    "owner": "ISRO",
    "state": "IN"
   },
   "omm": {
    "OBJECT_NAME": "RESOURCESAT-2",
    "OBJECT_ID": "2011-015A",
    "EPOCH": "2026-07-22T21:56:00.481344",
    "MEAN_MOTION": 14.21600835,
    "ECCENTRICITY": 0.00119796,
    "INCLINATION": 98.7625,
    "RA_OF_ASC_NODE": 271.1053,
    "ARG_OF_PERICENTER": 149.8556,
    "MEAN_ANOMALY": 210.3313,
    "EPHEMERIS_TYPE": 0,
    "CLASSIFICATION_TYPE": "U",
    "NORAD_CAT_ID": 37387,
    "ELEMENT_SET_NO": 999,
    "REV_AT_EPOCH": 79125,
    "BSTAR": 0.000044737621,
    "MEAN_MOTION_DOT": 5.4e-7,
    "MEAN_MOTION_DDOT": 0
   }
  },
  {
   "norad": 41877,
   "name": "RESOURCESAT-2A",
   "intl": "2016-074A",
   "group": "resource",
   "gcat": {
    "class": "C",
    "category": "IMG",
    "owner": "ISRO",
    "state": "IN"
   },
   "omm": {
    "OBJECT_NAME": "RESOURCESAT-2A",
    "OBJECT_ID": "2016-074A",
    "EPOCH": "2026-07-22T23:10:47.896032",
    "MEAN_MOTION": 14.21610172,
    "ECCENTRICITY": 0.00018992,
    "INCLINATION": 98.751,
    "RA_OF_ASC_NODE": 277.1751,
    "ARG_OF_PERICENTER": 9.7963,
    "MEAN_ANOMALY": 350.3251,
    "EPHEMERIS_TYPE": 0,
    "CLASSIFICATION_TYPE": "U",
    "NORAD_CAT_ID": 41877,
    "ELEMENT_SET_NO": 999,
    "REV_AT_EPOCH": 49938,
    "BSTAR": 0.000076843362,
    "MEAN_MOTION_DOT": 0.00000124,
    "MEAN_MOTION_DDOT": 0
   }
  },
  {
   "norad": 29228,
   "name": "RESURS-DK 1",
   "intl": "2006-021A",
   "group": "resource",
   "gcat": {
    "class": null,
    "category": null,
    "owner": null,
    "state": null
   },
   "omm": {
    "OBJECT_NAME": "RESURS-DK 1",
    "OBJECT_ID": "2006-021A",
    "EPOCH": "2026-07-22T07:59:27.691296",
    "MEAN_MOTION": 15.13337369,
    "ECCENTRICITY": 0.00075242,
    "INCLINATION": 69.9299,
    "RA_OF_ASC_NODE": 248.5646,
    "ARG_OF_PERICENTER": 263.4935,
    "MEAN_ANOMALY": 96.5374,
    "EPHEMERIS_TYPE": 0,
    "CLASSIFICATION_TYPE": "U",
    "NORAD_CAT_ID": 29228,
    "ELEMENT_SET_NO": 999,
    "REV_AT_EPOCH": 10789,
    "BSTAR": 0.000086164191,
    "MEAN_MOTION_DOT": 0.00001431,
    "MEAN_MOTION_DDOT": 0
   }
  }
 ]
}
